[{"OBJECT_NAME":"STARLINK-3508","OBJECT_ID":"2022-022L","EPOCH":"2026-03-09T01:29:52.196352","MEAN_MOTION":15.08834436,"ECCENTRICITY":0.00014249,"INCLINATION":53.2183,"RA_OF_ASC_NODE":11.9375,"ARG_OF_PERICENTER":91.4978,"MEAN_ANOMALY":268.6178,"EPHEMERIS_TYPE":0,"CLASSIFICATION_TYPE":"U","NORAD_CAT_ID":51862,"ELEMENT_SET_NO":999,"REV_AT_EPOCH":22307,"BSTAR":7.1122241e-5,"MEAN_MOTION_DOT":8.44e-6,"MEAN_MOTION_DDOT":0},{"OBJECT_NAME":"OBJECT H","OBJECT_ID":"2025-292H","EPOCH":"2026-03-09T22:24:53.558208","MEAN_MOTION":15.06373042,"ECCENTRICITY":0.00142604,"INCLINATION":97.6442,"RA_OF_ASC_NODE":145.7846,"ARG_OF_PERICENTER":348.9217,"MEAN_ANOMALY":11.1694,"EPHEMERIS_TYPE":0,"CLASSIFICATION_TYPE":"U","NORAD_CAT_ID":67000,"ELEMENT_SET_NO":999,"REV_AT_EPOCH":1338,"BSTAR":0.0005462937,"MEAN_MOTION_DOT":8.001e-5,"MEAN_MOTION_DDOT":0}]
